HAWK-10A                
1 60540U 24149CA  26068.79979252  .00002135  00000+0  19454-3 0  9993
2 60540  97.6943 146.4192 0004333  57.1994 302.9645 14.96174213 85123
STARLINK-34472          
1 64434U 25129Y   26068.40698282  .00001121  00000+0  10171-3 0  9998
2 64434  70.0008  75.2207 0004644 277.8623  82.2009 14.98330059 41248
